{
  "metar": [{
    "icaoId": "RKPU",
    "reportTime": "2025-01-15T13:00:00Z",
    "temp": 5,
    "dewp": -2,
    "wdir": 270,
    "wspd": 8,
    "wgst": 15,
    "visib": 10,
    "altim": 1023,
    "clouds": [
      {"cover": "FEW", "base": 3500},
      {"cover": "SCT", "base": 8000}
    ],
    "rawOb": "METAR RKPU 151300Z 27008G15KT 9999 FEW035 SCT080 05/M02 Q1023 NOSIG"
  }],
  "taf": [{
    "icaoId": "RKPU",
    "issueTime": "2025-01-15T06:00:00Z",
    "validTime": {
      "from": "2025-01-15T06:00:00Z",
      "to": "2025-01-16T12:00:00Z"
    },
    "rawTAF": "TAF RKPU 150600Z 1506/1612 27010KT 9999 FEW040 TEMPO 1506/1512 28015G25KT"
  }]
}
